{"type":"FeatureCollection","features":[{"type":"Feature","properties":{"name":"ARGELATO"},"geometry":{"type":"Polygon","coordinates":[[[11.346165602738782,44.667976313811884],[11.34697603025229,44.66498664461572],[11.350089356718135,44.66414671549095],[11.354024041858839,44.661124689116754],[11.353996742778541,44.65988575253163],[11.352520833445233,44.65674512242319],[11.35237930987389,44.656461661117916],[11.35224676986602,44.656225269739785],[11.352121012519085,44.65608591362318],[11.35207678192611,44.65603690059591],[11.347578791763565,44.651329019718816],[11.345889781348234,44.647462936370275],[11.350558257210835,44.64233797378474],[11.351436545295565,44.6415533200193],[11.354258402822861,44.640119700679165],[11.354624015877356,44.64002100833799],[11.356547014334234,44.639635302035394],[11.356782636080476,44.639596126566694],[11.35783885127904,44.639543358312785],[11.358691094101948,44.63453513367175],[11.359470307316576,44.62994530282057],[11.359405407537414,44.62966587012294],[11.356024610753979,44.629903385246074],[11.352182190930577,44.63018348112519],[11.348587767367068,44.630048753818805],[11.345293005244796,44.6247578682558],[11.34972185013812,44.61662596752806],[11.350412189243636,44.614329678098045],[11.357614076736462,44.61188963198992],[11.36102751733715,44.61087588210271],[11.364192794076246,44.610130130228086],[11.368682402272816,44.609471024185],[11.370037563458686,44.59906273108455],[11.379846430875462,44.594092564158224],[11.383832363444165,44.59240457892271],[11.387928123824585,44.5887253334029],[11.38863102550628,44.58781767479754],[11.388082049454196,44.587255811956936],[11.386987805093604,44.586300200798185],[11.386845228071762,44.58624073666376],[11.386635541834826,44.58619396100579],[11.383807260892837,44.58403287323948],[11.379317179319372,44.57962992080109],[11.376271369698202,44.58015520969103],[11.366241615886677,44.58305046496388],[11.362125576996677,44.58426187607014],[11.363077677289901,44.58535621743488],[11.36238512054046,44.58825642999579],[11.362056084790977,44.589346904690466],[11.355069136782085,44.592054327164774],[11.347095000293855,44.594165339860794],[11.344285262068528,44.59469008604692],[11.341115900171356,44.595868609727404],[11.338787124532228,44.5967473052933],[11.335407628272145,44.599057973054485],[11.33310338666676,44.60141759263698],[11.332342526970972,44.60344122905295],[11.316768158444747,44.60606913280689],[11.313059028502472,44.606597283295706],[11.31314078835397,44.60699003869985],[11.313425930886815,44.60794301266109],[11.313511163878143,44.60820517189462],[11.313651777243923,44.60849320059268],[11.31378897479872,44.6087543054366],[11.31414341467339,44.60930977632484],[11.31501511568182,44.6106120686906],[11.315267913658424,44.61096760332862],[11.315653618377993,44.61143688776596],[11.3166151350516,44.61244139588065],[11.317468810600598,44.61320896082114],[11.317689013329394,44.61343743961611],[11.317752724403837,44.61355373574623],[11.3180785865483,44.614180664751636],[11.318146662414286,44.61464459081091],[11.318142346382178,44.615050343170736],[11.318095327234904,44.61598698599358],[11.317989089208702,44.61644431235321],[11.317723776486499,44.61725992424715],[11.317415883401267,44.6178367031503],[11.31721678574834,44.6181389421773],[11.31689556324899,44.618539881189875],[11.31664918158161,44.61882169185974],[11.316250493241606,44.61915657135889],[11.316201626500689,44.61919592044637],[11.315807284538485,44.61948130399548],[11.315486985932322,44.61966842351428],[11.314818580002273,44.62005555709131],[11.314632890619498,44.62016059525285],[11.314141546382928,44.62036467831659],[11.31369134398977,44.620533597330954],[11.313163877960445,44.62070125803194],[11.312164648673901,44.620931369544586],[11.311120919869614,44.62105322611924],[11.299841410581484,44.62508736272707],[11.301345871898409,44.627151775597156],[11.306270395482356,44.63401795270104],[11.3063092221509,44.63410324562191],[11.306294875952714,44.63419863236559],[11.306252634025094,44.63436545413032],[11.30620398807843,44.63454986361881],[11.30612317853742,44.63473772712701],[11.30584586162706,44.63535550440732],[11.305715344559268,44.63564114481799],[11.30470190284446,44.63599751128257],[11.304309338127057,44.636133719909985],[11.304195776588372,44.63617089480411],[11.304048579393589,44.63619468045839],[11.303919714011299,44.636204028773875],[11.303515931556362,44.63619586271554],[11.303152316973597,44.6361874546319],[11.302480267594719,44.63617062927466],[11.302371660636195,44.63615425335884],[11.302160651448514,44.63607860387124],[11.301963997835959,44.63596835454245],[11.301669236870106,44.635727872947925],[11.299332143262662,44.63323853897657],[11.297866859144095,44.63410470331028],[11.29776052328438,44.63418560496922],[11.297646054335466,44.634320138212544],[11.29611544801925,44.63772680304147],[11.295091365499486,44.64031251230184],[11.294760367302256,44.641910887571754],[11.292073257840583,44.644698217613076],[11.289963539876391,44.64526099392857],[11.293504590077484,44.64697968546644],[11.293956252431993,44.64724067052359],[11.294224457001308,44.64746653185633],[11.294467543033585,44.64773452898588],[11.294617945543777,44.648091040305104],[11.294808817722185,44.64871397813537],[11.29489332925464,44.64906759244551],[11.294927189473103,44.64921685812032],[11.294867931455238,44.65037204161787],[11.294820971509425,44.650639673181765],[11.294668352885958,44.651286404398235],[11.294394080558897,44.651863151096],[11.298327217560999,44.661613969943076],[11.298533643209492,44.661730223740676],[11.2988429168588,44.66193610946162],[11.298981636434812,44.66207454033018],[11.299107812119928,44.662334759230134],[11.29918202156234,44.66255662494092],[11.299222073131816,44.66273192610266],[11.29921843259802,44.66293906195054],[11.29919815042172,44.66330348473215],[11.299128362168181,44.66363179148181],[11.29906728172702,44.663881714747525],[11.298981642175745,44.6640685435012],[11.298855146996983,44.664238754711505],[11.297298767923108,44.66563281921633],[11.29701665060088,44.66587592402935],[11.296547564337493,44.665737911023065],[11.28823294501079,44.66871712053522],[11.292128607780455,44.67235043213299],[11.293526703079237,44.67347030614282],[11.296001675979833,44.67464973735496],[11.296993952124465,44.674062755722865],[11.297592403208284,44.673583713695],[11.298094971483561,44.67109632920598],[11.298079960900873,44.67093626975297],[11.297897002064037,44.66979892418603],[11.297859813562527,44.66963593704657],[11.303552898308563,44.66944637544887],[11.306055279076272,44.66956071000055],[11.312206125443828,44.67199805916995],[11.323164843301006,44.668990871055335],[11.334112073726102,44.666584489638446],[11.339305542555916,44.667332808452194],[11.346165602738782,44.667976313811884]]]}},{"type":"Feature","properties":{"name":"BARICELLA"},"geometry":{"type":"Polygon","coordinates":[[[11.614566848788343,44.69012298271195],[11.632459477089133,44.67294514576425],[11.629018756043578,44.66983977232559],[11.619071255448121,44.66450693631584],[11.614349059259089,44.662303877034304],[11.610454653601025,44.66042715639073],[11.605845998097104,44.658174999219746],[11.60572329819927,44.6579876260834],[11.605455000564106,44.65757684269644],[11.604636944891602,44.656296376156355],[11.600565052920606,44.64987099888243],[11.600386685012113,44.649073815359976],[11.599359514962677,44.64277366410168],[11.5984669160347,44.64394463407373],[11.597758843769604,44.64481934955796],[11.596548765432063,44.64626023954319],[11.587026517324782,44.641937643400155],[11.575497456080148,44.636201527051085],[11.567854274865761,44.63476589847306],[11.566832783227134,44.63598600773019],[11.566134677488758,44.636820786978845],[11.565801303615707,44.63722231230249],[11.556673512319907,44.63818860520951],[11.543122756504522,44.63857293080539],[11.535357301673368,44.64078008859593],[11.535391532124873,44.640841145716806],[11.535450458438273,44.640946253790055],[11.532691075999969,44.64292951040278],[11.530234341467269,44.644660773550164],[11.525570018927906,44.64260683039885],[11.522916199808652,44.639813674317814],[11.518933492509655,44.64118220264478],[11.507401436141901,44.647120519986586],[11.49944184351958,44.64906624187374],[11.503275836152898,44.65222029019094],[11.514350480275933,44.657784949234106],[11.519164166805076,44.658700638229604],[11.520692993810268,44.65974321732071],[11.52208103130547,44.66079283168529],[11.530071920417303,44.669932616297324],[11.5335929683941,44.67385206946199],[11.538736856551036,44.6788769762306],[11.541840481076006,44.68193561476278],[11.549430793760422,44.68942276377536],[11.549744207368795,44.689752782956276],[11.549773722832334,44.68981401536284],[11.549766003880986,44.689890146602664],[11.540664779991454,44.68895206893525],[11.539909563175916,44.68887042674215],[11.539989773734511,44.68899128203442],[11.540803500822234,44.68981544619989],[11.545684687510496,44.69463090431893],[11.548486227757934,44.69738289192237],[11.548631356331502,44.69751787438099],[11.548868731396754,44.69740849787392],[11.549364309861627,44.697179121741605],[11.554420674869343,44.69483117599452],[11.560377184120798,44.6920639837965],[11.562114265491797,44.69121370330451],[11.574225860735647,44.692443476833844],[11.576449765183671,44.69496107193705],[11.573019509695694,44.69904332358065],[11.575561578791602,44.70363901084693],[11.583030502377252,44.70718926393094],[11.592726703551781,44.71169763569608],[11.614566848788343,44.69012298271195]]]}},{"type":"Feature","properties":{"name":"BENTIVOGLIO"},"geometry":{"type":"Polygon","coordinates":[[[11.386635541834826,44.58619396100579],[11.386845228071762,44.58624073666376],[11.386987805093604,44.586300200798185],[11.388082049454196,44.587255811956936],[11.38863102550628,44.58781767479754],[11.387928123824585,44.5887253334029],[11.383832363444165,44.59240457892271],[11.379846430875462,44.594092564158224],[11.370037563458686,44.59906273108455],[11.368682402272816,44.609471024185],[11.368627136173451,44.60989415272081],[11.368638779537376,44.61203985238893],[11.368740667021974,44.61315010579218],[11.368757623714966,44.61329603162056],[11.368790747097634,44.61345231593095],[11.36896039243674,44.613885415598396],[11.370310050172908,44.616969955991],[11.370347473865657,44.6170378547254],[11.378337769946667,44.62484032826118],[11.382590062197055,44.634537365171994],[11.385329666519883,44.63976350675723],[11.385729340193645,44.64026421648077],[11.389533982035598,44.644771256729086],[11.399059317112167,44.64830854859864],[11.40104240971293,44.64880642989774],[11.405394560806236,44.64804125366378],[11.408911085755692,44.65330601605348],[11.410804762787587,44.6572118592371],[11.414248170893156,44.66304347854874],[11.418274962172353,44.669273883516524],[11.419513802294334,44.67073637867191],[11.420367093250464,44.6714216077953],[11.422027370928575,44.67173690576367],[11.428537683060341,44.67184497996802],[11.432321159598072,44.67083493271159],[11.443297871977705,44.668141737682504],[11.444945932387954,44.66803443387032],[11.445546670286568,44.668126781788786],[11.447185331643393,44.671073661050535],[11.449443365251362,44.67520396650849],[11.450559573023583,44.677906564419885],[11.451003330407948,44.67896774396642],[11.451058710008123,44.679083590469595],[11.451118052238249,44.67918189182396],[11.452621551675527,44.68016775653284],[11.461676551519696,44.67983192540126],[11.46460225905034,44.684537997812534],[11.466541114014845,44.68719988292738],[11.479889193617451,44.68495280183097],[11.485878494582844,44.683985979396574],[11.4857232856252,44.68298421511783],[11.485166313719432,44.68119196971146],[11.482460550664657,44.67521198602399],[11.477313813837846,44.67406522547906],[11.476564494348821,44.67426321770159],[11.4764837163109,44.67427396732522],[11.476395147465789,44.674268016446256],[11.476331568150258,44.674237316047794],[11.476055371144417,44.67397324875345],[11.47302686526871,44.6709207356108],[11.472952333095122,44.670818275299744],[11.47278826327227,44.670408849336894],[11.472078203608417,44.66860069780353],[11.471940238943372,44.668230103842404],[11.471139977110973,44.66340978507199],[11.469388066132105,44.6462178674665],[11.468435221289662,44.64330257755677],[11.468372371475938,44.64321448193426],[11.468088434011042,44.6429308543503],[11.46593606069663,44.640899093573424],[11.464826386227807,44.64015607545973],[11.46339011982567,44.63938250422172],[11.454758249577244,44.62919330192163],[11.451098068916464,44.62551799220225],[11.450879939947507,44.62518287958033],[11.449522626730381,44.623426727011434],[11.443917792026049,44.616609479385986],[11.440683580688644,44.61308167892638],[11.436821651533586,44.609452924208775],[11.432025623666762,44.60545239306478],[11.432868363130495,44.60228254125804],[11.426669043597403,44.5966896414479],[11.417802734670541,44.58862141867343],[11.415948308419381,44.586583935547985],[11.415711178879778,44.58633351050536],[11.413692811847529,44.58489701825678],[11.411723415196736,44.58479457758739],[11.409479383279216,44.58557114881137],[11.403111359405072,44.58428697962185],[11.394736292508004,44.58467571946933],[11.389426164722494,44.58514371872855],[11.387982380042773,44.58566625341639],[11.38682426141591,44.58608995807374],[11.386635541834826,44.58619396100579]]]}},{"type":"Feature","properties":{"name":"BUDRIO"},"geometry":{"type":"Polygon","coordinates":[[[11.575497456080148,44.636201527051085],[11.587026517324782,44.641937643400155],[11.596548765432063,44.64626023954319],[11.597758843769604,44.64481934955796],[11.5984669160347,44.64394463407373],[11.599359514962677,44.64277366410168],[11.600231899302923,44.64153849341159],[11.607169450534284,44.63164030696007],[11.606595417955663,44.630945030159154],[11.606348272917522,44.630669348111134],[11.60249916043391,44.62862420123218],[11.601731838412718,44.62822084034668],[11.605207719541506,44.62611992792767],[11.614975756594141,44.62098131533353],[11.623884872120307,44.61363799515369],[11.62391156886449,44.61283165754387],[11.623813304356494,44.612678641408124],[11.623703532613057,44.612532619912656],[11.623564311677685,44.61236253396485],[11.62306358562337,44.61180801080509],[11.621631484357332,44.61035905232868],[11.621037780381217,44.609937606555974],[11.620499455416486,44.60959719785175],[11.62024565307421,44.60945280269246],[11.619807289970138,44.609233309850865],[11.619313357549629,44.60905614880888],[11.618779547283363,44.60890298370045],[11.618382227968754,44.60880800563226],[11.617485822539043,44.60863051868964],[11.615360232152755,44.60830284257179],[11.614057535335652,44.60811043156702],[11.612748320697577,44.60789566235166],[11.609741712153463,44.60737985852022],[11.609385088964512,44.607295754859166],[11.60909674871099,44.607224137401],[11.608550102492249,44.607082464453924],[11.606758057439508,44.60660183109509],[11.605730852937175,44.60626350307447],[11.605166177452771,44.60605303205032],[11.6046663138416,44.60584780844985],[11.603065582554727,44.60518778702409],[11.602975657719437,44.60514986811391],[11.602559078137247,44.6049737419025],[11.59754888504524,44.60231628484491],[11.593948385244413,44.59986119405657],[11.593467811695541,44.59518637806849],[11.58525450376467,44.59001580487518],[11.582123000267469,44.58366856782039],[11.58209343914119,44.583570193519314],[11.582172364965468,44.5833613616774],[11.582338740763749,44.583313717806455],[11.584719321033797,44.58304319794592],[11.585429268025823,44.58298605896945],[11.585836644848381,44.58297625855597],[11.586048729572251,44.58298327179607],[11.591014044574191,44.58391999253188],[11.597455703950722,44.5801737578806],[11.601110762496722,44.57803789208173],[11.616265901367525,44.577784324366306],[11.624003771498398,44.57765168928025],[11.626813434951389,44.57758425421283],[11.629143786133325,44.57751932183883],[11.630265362852255,44.56884109378157],[11.629522888072987,44.56822465429061],[11.623036797842053,44.56422323639334],[11.617197911595394,44.560962823638164],[11.612154827332597,44.556865797046044],[11.613586572887138,44.55611731653571],[11.617948285902822,44.55372792907836],[11.619514749142631,44.552863762682705],[11.620642733338302,44.55222402933933],[11.620938337501274,44.55113187764488],[11.605951846335945,44.54156168517397],[11.603037833427438,44.539761873623895],[11.602248749893702,44.53928474330408],[11.601921583978301,44.53909300922018],[11.60178445055298,44.539016800817045],[11.601434383809494,44.53887568084697],[11.600093652423066,44.538464555351915],[11.598921379515248,44.538108650915916],[11.597718828440579,44.53776129620497],[11.575609408280355,44.52019282528885],[11.57508780221562,44.51945682681684],[11.573781694219237,44.51760366210117],[11.573394062808946,44.51703342552171],[11.572984342766262,44.51642599822377],[11.573052342857155,44.51625622696518],[11.573978781287646,44.51581220157664],[11.573290035575006,44.51474012244772],[11.571749001541216,44.51251469635361],[11.569211699017874,44.51078157649011],[11.565875348449136,44.50872135895007],[11.556334450369757,44.50387221125117],[11.544906089883103,44.498018584250275],[11.543360608033716,44.497224279012],[11.540262859733883,44.49562216243029],[11.534724739398852,44.49275703189198],[11.53278927130337,44.49173656234831],[11.531128950480195,44.4907887518314],[11.5292878374484,44.490001888414334],[11.524682404773465,44.487651231592515],[11.524618570666492,44.48761101289703],[11.523045588271005,44.48640401613086],[11.520674300031176,44.48392388335264],[11.520217962011154,44.48338699482153],[11.520176075159922,44.48333359989481],[11.515855183576607,44.48387551730156],[11.5103249917436,44.48482211699919],[11.505785134708166,44.48683822406652],[11.503188906890555,44.48984745266655],[11.498495443399174,44.49418874568265],[11.493211904101022,44.49324253691013],[11.491521362990168,44.49138449285349],[11.489900388160823,44.49197129502292],[11.495839980201135,44.499935464289976],[11.498097206972986,44.50166509167627],[11.49851523316786,44.501954161817494],[11.499277597445452,44.5024264042236],[11.499458306454514,44.50251529607374],[11.501547525030269,44.50331238825962],[11.502604524214588,44.50368701794419],[11.505183703529863,44.50398997985692],[11.508149848752655,44.50369076352889],[11.510364264463274,44.505675615569565],[11.514962751674286,44.51162742410027],[11.51600875248898,44.5130059004033],[11.510283545836302,44.518386630546466],[11.500165064642355,44.52334051058852],[11.488831781858302,44.5285986218724],[11.490557865362193,44.53550580320543],[11.48857468963048,44.53958495226908],[11.482902157842684,44.54246041199807],[11.480469755370258,44.5431873531868],[11.475732076075372,44.544284426000424],[11.475610104372466,44.544117157290955],[11.474037034535312,44.54182582493391],[11.470868175263021,44.54286840040966],[11.470713945612303,44.54292351052078],[11.471817676963898,44.54459377861159],[11.476332271908507,44.55162245122995],[11.471971885790936,44.553084764685984],[11.46678142599884,44.561680157085675],[11.469045278884655,44.571321753458605],[11.470872014683952,44.574272123945875],[11.472634939071032,44.57717777603642],[11.473206735956028,44.57814945686083],[11.474005503611362,44.57951625942749],[11.474225383553575,44.57989297074569],[11.474258354896966,44.57996539560248],[11.474201222698795,44.58001053183104],[11.474093828465644,44.580057864802924],[11.471731949530488,44.58089109785033],[11.465699549465299,44.5829469730789],[11.45927430780782,44.58516341580262],[11.459637233077641,44.5860586389874],[11.463328964721288,44.59395680671092],[11.470661019580437,44.600072982122036],[11.474791656023323,44.601818293367764],[11.485590905484163,44.59752863151261],[11.491831288260567,44.592160499342555],[11.493789808247918,44.591393027219326],[11.496205630495837,44.59054914807297],[11.504525733034503,44.58792385238049],[11.51343365859946,44.5886316651647],[11.523730702855925,44.5887937980672],[11.528491659493403,44.59611988529358],[11.534834117850513,44.60629705153307],[11.535105617989204,44.606707951448236],[11.535171719117608,44.6067970637819],[11.53524755310042,44.60689272520438],[11.535333744653045,44.60699095985523],[11.535545656078305,44.607209061390414],[11.538139550150266,44.60636651505049],[11.538798673166426,44.60614704179607],[11.54066885335954,44.60547077656788],[11.550651900585565,44.60614440108614],[11.551852844175592,44.60700372223534],[11.556228758201541,44.61016020210452],[11.557413485381936,44.61102211657096],[11.557649473026855,44.611194075255334],[11.55700499746785,44.616087792830186],[11.56570928546055,44.62779455589697],[11.566195753998946,44.62843626439101],[11.566342377427564,44.628628530076064],[11.566523762568398,44.628861318641285],[11.56683347824164,44.629256890897054],[11.56775819860665,44.630249993247304],[11.569832596270254,44.63233345276154],[11.570343890764041,44.632777135784366],[11.57228787553442,44.634240689466914],[11.57370891645481,44.63529796247296],[11.575497456080148,44.636201527051085]]]}},{"type":"Feature","properties":{"name":"CASTELLO D'ARGILE"},"geometry":{"type":"MultiPolygon","coordinates":[[[[11.296547564337493,44.665737911023065],[11.29701665060088,44.66587592402935],[11.297298767923108,44.66563281921633],[11.298855146996983,44.664238754711505],[11.298981642175745,44.6640685435012],[11.29906728172702,44.663881714747525],[11.299128362168181,44.66363179148181],[11.29919815042172,44.66330348473215],[11.29921843259802,44.66293906195054],[11.299222073131816,44.66273192610266],[11.29918202156234,44.66255662494092],[11.299107812119928,44.662334759230134],[11.298981636434812,44.66207454033018],[11.2988429168588,44.66193610946162],[11.298533643209492,44.661730223740676],[11.298327217560999,44.661613969943076],[11.294394080558897,44.651863151096],[11.294668352885958,44.651286404398235],[11.294820971509425,44.650639673181765],[11.294867931455238,44.65037204161787],[11.294927189473103,44.64921685812032],[11.29489332925464,44.64906759244551],[11.294808817722185,44.64871397813537],[11.294617945543777,44.648091040305104],[11.294467543033585,44.64773452898588],[11.294224457001308,44.64746653185633],[11.293956252431993,44.64724067052359],[11.293504590077484,44.64697968546644],[11.289963539876391,44.64526099392857],[11.292073257840583,44.644698217613076],[11.294760367302256,44.641910887571754],[11.295091365499486,44.64031251230184],[11.29611544801925,44.63772680304147],[11.297646054335466,44.634320138212544],[11.29776052328438,44.63418560496922],[11.297866859144095,44.63410470331028],[11.299332143262662,44.63323853897657],[11.298967282475399,44.63263934985822],[11.297729691376908,44.63069051913996],[11.296635201422706,44.63034963445682],[11.295820122701006,44.63105977144759],[11.295451336708657,44.63143854184396],[11.294969913458822,44.63197822417078],[11.29440200499229,44.632782975798406],[11.294082607359645,44.63345557145262],[11.293935249821645,44.6339553485511],[11.293834864996548,44.634367529777386],[11.288414348387647,44.6418222382142],[11.282768836340669,44.64375878629188],[11.287365869715963,44.64694529777485],[11.290461802981566,44.64646686253706],[11.29066089322397,44.6464392317563],[11.290862042664878,44.6464835910127],[11.29104651697829,44.64652489249461],[11.292388675867025,44.64744319828369],[11.293461956804114,44.649067368071826],[11.294642469149316,44.65089081001211],[11.294475497523536,44.65135384960343],[11.294228608121474,44.65198840881472],[11.294081145634363,44.65226650325338],[11.292668726959242,44.65334870599103],[11.291385088813042,44.653758775798316],[11.290661442311364,44.65633952717536],[11.293530861877546,44.66135807072048],[11.295480303448297,44.664230003584606],[11.296547564337493,44.665737911023065]]],[[[11.346165602738782,44.667976313811884],[11.339305542555916,44.667332808452194],[11.334112073726102,44.666584489638446],[11.323164843301006,44.668990871055335],[11.312206125443828,44.67199805916995],[11.306055279076272,44.66956071000055],[11.303552898308563,44.66944637544887],[11.297859813562527,44.66963593704657],[11.297897002064037,44.66979892418603],[11.298079960900873,44.67093626975297],[11.298094971483561,44.67109632920598],[11.297592403208284,44.673583713695],[11.296993952124465,44.674062755722865],[11.296001675979833,44.67464973735496],[11.293526703079237,44.67347030614282],[11.292128607780455,44.67235043213299],[11.28823294501079,44.66871712053522],[11.283561650000967,44.67188134735617],[11.283001560563898,44.67215529155419],[11.282618797170764,44.67228730207734],[11.282171565754433,44.67242395541271],[11.280923390560037,44.67274693337343],[11.280412247874182,44.67283628015486],[11.279841733137655,44.672905623426615],[11.279288725225257,44.67293917830925],[11.278878454308096,44.67293274898411],[11.278307439558178,44.672849051840515],[11.27791577471633,44.67277416108424],[11.277445577723958,44.67264681721092],[11.27686406095125,44.67245587205676],[11.276191871058833,44.67218402649178],[11.275293794832463,44.67178162993142],[11.274767548191063,44.671531607991675],[11.273587552973439,44.670735348671286],[11.273134393661872,44.670418044459495],[11.271604102104028,44.669210872579946],[11.27131433242193,44.668982275756164],[11.2710451207979,44.6687929209761],[11.270190202008646,44.66965446321586],[11.269823341289351,44.6700319671914],[11.269605951908781,44.67026022155338],[11.267840776725963,44.67273099460515],[11.265481117102333,44.67633994612266],[11.263720896972908,44.679372061097695],[11.255687763950977,44.68307629136209],[11.25059913317384,44.6831705346667],[11.247736353986166,44.68361856683354],[11.247447348826022,44.68375196808897],[11.247298133687037,44.683931013219286],[11.24712343037496,44.684349129152025],[11.247110870298826,44.68463575347607],[11.247186254106508,44.68515752062195],[11.247279714657012,44.68571833054004],[11.24736283582351,44.686052591183476],[11.247719099190642,44.68655645572679],[11.248049498943999,44.68700288222423],[11.24854882135531,44.68745328129255],[11.249008383329782,44.68779306750352],[11.249276509590544,44.68797571009354],[11.249762049828593,44.68827333203832],[11.249961181766867,44.688384746944024],[11.250254878918007,44.688534820478694],[11.250417113498726,44.68861038454974],[11.250688051698093,44.688722630414006],[11.251596741453561,44.68900967154914],[11.251965699266874,44.68908622394932],[11.252453908163282,44.6891474803528],[11.256233798266694,44.689399158876626],[11.256486960365487,44.68939810043516],[11.25673078072157,44.68936009419101],[11.257107299999063,44.689266549703454],[11.257584138851628,44.68913615751972],[11.258505138298146,44.688825367491326],[11.258917255191392,44.688673738123896],[11.259755239450003,44.688338696332536],[11.260938193126263,44.68782858141482],[11.266654041552362,44.69169195834796],[11.2701815038343,44.69833415144878],[11.275433873270329,44.70557787957193],[11.277433837239569,44.70902496331227],[11.286004209553294,44.706626792443565],[11.289588922086944,44.70601762804183],[11.301133884520194,44.70281807846206],[11.31041465758756,44.69982471910724],[11.313742664579415,44.70103792902298],[11.323438979987207,44.70956519247752],[11.325531219698082,44.711332596418195],[11.326236117025118,44.71114267925332],[11.32797767119116,44.7108719968654],[11.330673294377721,44.71072301501303],[11.339304912589387,44.7084061764502],[11.341824830351683,44.704414331108204],[11.349381140921233,44.702189100545496],[11.349594229224762,44.702132943969836],[11.349312792216455,44.70110296425667],[11.349488540878287,44.69870082010335],[11.349546723916035,44.69811108893599],[11.349938186846027,44.69770693842868],[11.351172544167083,44.69694278319451],[11.352497116078563,44.696341595794884],[11.353209754190154,44.696077643760596],[11.354673919914612,44.69532165333334],[11.357503656142944,44.69371596930915],[11.35774505782704,44.69301669720847],[11.357533912391311,44.69135225014045],[11.35750202168606,44.69126570329493],[11.357070935202923,44.690536422608176],[11.354846833605492,44.68738822082587],[11.353136102222068,44.68600507856982],[11.349193597163499,44.68323876846141],[11.347225962310889,44.67812653160005],[11.347188556260507,44.67798157808172],[11.347177828497498,44.67787208173222],[11.34717625416869,44.67775507825348],[11.347209545766733,44.67760304719018],[11.347253648367651,44.677484550784925],[11.347306029832783,44.677395125523134],[11.347390879307097,44.67727016826482],[11.347515601713283,44.677156191192445],[11.34766737059886,44.677048422071735],[11.347771288298354,44.67698551799567],[11.348103943358284,44.676826204485955],[11.353917229480055,44.67425728684039],[11.355170249795906,44.67371381045456],[11.35649409289644,44.67314804474301],[11.356687511329694,44.67305682775857],[11.356808760424395,44.67297443839786],[11.357124120286684,44.67254594779971],[11.358020465658207,44.671278369355086],[11.3565872839905,44.66967123259405],[11.355031226711786,44.667947899469276],[11.35283931293365,44.66636875710644],[11.352047054057945,44.666507743815956],[11.34996676543982,44.66702319814874],[11.346165602738782,44.667976313811884]]]]}},{"type":"Feature","properties":{"name":"CASTEL MAGGIORE"},"geometry":{"type":"Polygon","coordinates":[[[11.313059028502472,44.606597283295706],[11.316768158444747,44.60606913280689],[11.332342526970972,44.60344122905295],[11.33310338666676,44.60141759263698],[11.335407628272145,44.599057973054485],[11.338787124532228,44.5967473052933],[11.341115900171356,44.595868609727404],[11.344285262068528,44.59469008604692],[11.347095000293855,44.594165339860794],[11.355069136782085,44.592054327164774],[11.362056084790977,44.589346904690466],[11.36238512054046,44.58825642999579],[11.363077677289901,44.58535621743488],[11.362125576996677,44.58426187607014],[11.366241615886677,44.58305046496388],[11.376271369698202,44.58015520969103],[11.379317179319372,44.57962992080109],[11.383807260892837,44.58403287323948],[11.386635541834826,44.58619396100579],[11.38682426141591,44.58608995807374],[11.387982380042773,44.58566625341639],[11.389426164722494,44.58514371872855],[11.394736292508004,44.58467571946933],[11.403111359405072,44.58428697962185],[11.409479383279216,44.58557114881137],[11.40792516601446,44.58147186340719],[11.408582700692063,44.57499706390443],[11.403883679471395,44.56620342093865],[11.400880295973526,44.56365989878668],[11.394773567702305,44.560838693913524],[11.389427281633449,44.553066897640946],[11.387357367936287,44.5511713007082],[11.382288694164663,44.548460003681235],[11.382173116542791,44.54840389672343],[11.38202811988106,44.548379359589376],[11.381024724982312,44.54833466368835],[11.378278152141982,44.549257317155245],[11.36536883159818,44.554324477870885],[11.347340899675451,44.55230611468833],[11.337383616499306,44.54740614625807],[11.320528950481394,44.545278213166455],[11.318005557871183,44.54606599134291],[11.311857909388124,44.54800128382034],[11.311149359660002,44.54824578616948],[11.31440093931465,44.55278029407958],[11.309847173272232,44.56178489684866],[11.308719174771731,44.56255491182737],[11.308442585113005,44.562884590932725],[11.308195465716333,44.56332171332848],[11.308083160247444,44.56366606371466],[11.308123612291098,44.56405234864336],[11.308252169704401,44.564436852002025],[11.308671806967823,44.56503663200071],[11.308878177183153,44.56522144834161],[11.30909550962519,44.56538304028315],[11.309732187237337,44.56575951118546],[11.310071861741532,44.565950116454815],[11.310435277031294,44.566143631432965],[11.310857808100643,44.566319632418306],[11.313462660605412,44.56732352922477],[11.31478032542212,44.56692884649645],[11.31501752916176,44.56683740071788],[11.315229212145844,44.566697503906724],[11.316813646448246,44.56562895881617],[11.317222341087506,44.56509908125607],[11.318037030494976,44.563933032680204],[11.318294127295838,44.56335222713522],[11.318394499877119,44.56312512892365],[11.318659487679211,44.56252502471698],[11.319059482665102,44.56150019316388],[11.319430250849798,44.56063180069686],[11.319803648639436,44.56042334208712],[11.320100877073182,44.56025971531928],[11.320224672423729,44.560226796799626],[11.320555644023662,44.56013958759447],[11.3208140580158,44.5600865235938],[11.321543304840413,44.5600598764617],[11.322252254799222,44.56025477048906],[11.322485281259466,44.560394642205736],[11.32261867656249,44.560482556275815],[11.322790734014848,44.56081101438232],[11.322816012283173,44.56239493606446],[11.322666531134018,44.564333490871086],[11.322490433995284,44.566236598099614],[11.322405010308017,44.56685837007871],[11.322371993140862,44.566958638167776],[11.32232349961124,44.56710422635492],[11.322169221892079,44.56734142157773],[11.321283963930599,44.568196650367774],[11.32099883179802,44.56831048890356],[11.320586811875721,44.56839987723382],[11.317222067571342,44.56903538925721],[11.316335244661914,44.57205400503065],[11.319200149310555,44.578514487708574],[11.318194622770715,44.58847105069351],[11.316791814055785,44.59333262906452],[11.319377080131538,44.591812735851754],[11.319945392822522,44.59156531186935],[11.320190562870378,44.59145861998002],[11.321058097758618,44.59216568213878],[11.32151390026123,44.592538444198844],[11.32197579935116,44.592965671296604],[11.322422978688698,44.59349727246499],[11.322563606876079,44.59370652800603],[11.3227685192523,44.59410634733081],[11.322962837200349,44.59457557562557],[11.323041704066505,44.594874989309375],[11.323097215264532,44.59518726922282],[11.323028914592175,44.595525574226556],[11.322983640652426,44.59563394615344],[11.322772996736537,44.59609849022516],[11.322575925129575,44.59640969533862],[11.322443871892387,44.59651369210898],[11.322127033997296,44.59672436214132],[11.321804923183176,44.596881709890496],[11.321094582630632,44.597176912744146],[11.320908404070638,44.59681273570545],[11.320823220752496,44.59680939745066],[11.317732156201796,44.597021300659556],[11.315935460778217,44.597148919618014],[11.313555516189808,44.60230095551576],[11.313384293763479,44.602749493034295],[11.313135690672983,44.603529284028106],[11.312956658194537,44.604336371733396],[11.31288045847896,44.604936578994725],[11.312886842970723,44.60525603540311],[11.312930855363547,44.605888116936555],[11.313059028502472,44.606597283295706]]]}},{"type":"Feature","properties":{"name":"CASTENASO"},"geometry":{"type":"Polygon","coordinates":[[[11.426060607414898,44.48740267084088],[11.424057656823567,44.4889739512706],[11.420007481881534,44.48973780949496],[11.417265003723706,44.4906309081504],[11.422845724946214,44.50010672119821],[11.425964908455821,44.50234091475674],[11.432193102792137,44.51082430941865],[11.432453970019777,44.511197424171584],[11.43367114366751,44.513122764014334],[11.425227320415821,44.51946752124857],[11.425370289792127,44.52277852646612],[11.4302226349749,44.521184877244494],[11.431486837100689,44.521498291581246],[11.440793794586959,44.533619578445844],[11.441779704346272,44.538386655725134],[11.438785979189717,44.53975207182022],[11.442695612919294,44.54501137244514],[11.442769792365954,44.545017104030094],[11.443669158484548,44.544736785396964],[11.448301375573898,44.54328439298837],[11.466309992646861,44.54292875988671],[11.471817676963898,44.54459377861159],[11.470713945612303,44.54292351052078],[11.470868175263021,44.54286840040966],[11.474037034535312,44.54182582493391],[11.475610104372466,44.544117157290955],[11.475732076075372,44.544284426000424],[11.480469755370258,44.5431873531868],[11.482902157842684,44.54246041199807],[11.48857468963048,44.53958495226908],[11.490557865362193,44.53550580320543],[11.488831781858302,44.5285986218724],[11.500165064642355,44.52334051058852],[11.510283545836302,44.518386630546466],[11.51600875248898,44.5130059004033],[11.514962751674286,44.51162742410027],[11.510364264463274,44.505675615569565],[11.508149848752655,44.50369076352889],[11.505183703529863,44.50398997985692],[11.502604524214588,44.50368701794419],[11.501547525030269,44.50331238825962],[11.499458306454514,44.50251529607374],[11.499277597445452,44.5024264042236],[11.49851523316786,44.501954161817494],[11.498097206972986,44.50166509167627],[11.495839980201135,44.499935464289976],[11.489900388160823,44.49197129502292],[11.491521362990168,44.49138449285349],[11.493909463469254,44.49094301801541],[11.493685172929604,44.49021815810362],[11.492499027205922,44.48831808710723],[11.491138427461857,44.48671103101199],[11.484078096721058,44.481350225329855],[11.4796810181959,44.478478390821124],[11.46986263974466,44.478004223961634],[11.466384619542175,44.47935948305209],[11.457963837308718,44.482617607245366],[11.457846142772947,44.48266265622867],[11.457720398075141,44.48270840687046],[11.457332431055157,44.48284364827394],[11.45524767569185,44.48355804207401],[11.454983010334953,44.4836390762725],[11.454773229192675,44.48367678127379],[11.45458368549546,44.483710748566835],[11.454282146503104,44.48371723231204],[11.4415949310089,44.489168524358796],[11.428781168551515,44.48791765437274],[11.426060607414898,44.48740267084088]]]}},{"type":"Feature","properties":{"name":"GALLIERA"},"geometry":{"type":"Polygon","coordinates":[[[11.516132766714389,44.7335680805331],[11.518027887918446,44.72406626301734],[11.51831267662645,44.72252945865948],[11.517923329367562,44.722522857392875],[11.517433044571634,44.72251790954857],[11.512115493173603,44.72248088869427],[11.511641066085197,44.72247783547852],[11.499005185891797,44.7224383120448],[11.498049419139333,44.72247979670368],[11.483266271688285,44.723236583478275],[11.470928232694426,44.72724085691744],[11.452472676835018,44.7331213165468],[11.450560138775913,44.73362544710088],[11.445222089154466,44.732207307197385],[11.441102998187024,44.731394552268796],[11.437394710293717,44.732743101259594],[11.437797471826475,44.73353626740002],[11.437954315149858,44.733925080268094],[11.436975991517976,44.73423248853212],[11.432203135273557,44.73563174469734],[11.425764601253695,44.73499682927458],[11.424116881478389,44.73419518800251],[11.423501131668159,44.73228629564639],[11.422051149144927,44.730282569376165],[11.418873796497175,44.727967022637905],[11.417410708200421,44.728819072274334],[11.416321436379471,44.7296506345815],[11.409479790628327,44.735858249974505],[11.407758753448734,44.739844842796785],[11.407340073202995,44.74056034477992],[11.407136338357978,44.74076884514496],[11.397261782353034,44.74280515037878],[11.394679667162718,44.73980872387601],[11.393965605473635,44.73897638131049],[11.392942354200843,44.737766797130256],[11.390734849968874,44.735272971866365],[11.382872275205786,44.736771180452834],[11.382089458488743,44.73698838675054],[11.373993178734057,44.739330527689354],[11.372832654768242,44.73967536178623],[11.370846524893059,44.740370993579944],[11.37068258543781,44.74043516478483],[11.354724661812352,44.747692113400355],[11.350037036490157,44.75134740466262],[11.351596175499651,44.75241073811775],[11.353653878264758,44.754025283698454],[11.355937932512408,44.75592208256137],[11.35947589158805,44.75893730881703],[11.360349132824549,44.759921350723175],[11.36383567101147,44.76307758404761],[11.371604509341141,44.76958421484211],[11.378562244921596,44.774686528814094],[11.38834593712603,44.778654677681146],[11.389428191658101,44.77811891089756],[11.389914191457123,44.77787468660192],[11.390738551608019,44.77740731607545],[11.391222496612139,44.77711360896924],[11.391702073266371,44.77675247566255],[11.392465836200738,44.776043317050004],[11.393251977800869,44.775072605497165],[11.39397150727977,44.77405828167039],[11.394491847277925,44.77307962267276],[11.394915728397546,44.77232805580952],[11.395308443340138,44.77181569015503],[11.395529204446026,44.77157700672065],[11.396118605231358,44.77104701487353],[11.396995444393838,44.77028593034159],[11.398459479146737,44.7691344075193],[11.399084983533768,44.76867565386276],[11.399241075208389,44.76857415688803],[11.406430304593,44.76647303519005],[11.43028073694499,44.76084156632209],[11.442664527239284,44.760383126479056],[11.444440723395012,44.76059264624459],[11.446189236984042,44.76070822533768],[11.446668890364592,44.760733950649744],[11.448422280839525,44.760777378531195],[11.449495874142103,44.76076783853262],[11.450633010588122,44.76072993273674],[11.45181239707433,44.760682093193005],[11.452191722429173,44.76065143321723],[11.45278108681559,44.760508239870234],[11.45336546943749,44.76028413951481],[11.455152712438004,44.759561532477655],[11.46041232144716,44.75718874071665],[11.46189574256404,44.75612149235148],[11.474094682142148,44.75004179858962],[11.47871256803566,44.74864135811829],[11.487840902824335,44.74528747777844],[11.4905611606621,44.744287430162],[11.503420811088303,44.739405875263984],[11.512173082677004,44.73556321388255],[11.516132766714389,44.7335680805331]]]}},{"type":"Feature","properties":{"name":"GRANAROLO DELL'EMILIA"},"geometry":{"type":"Polygon","coordinates":[[[11.409479383279216,44.58557114881137],[11.411723415196736,44.58479457758739],[11.413692811847529,44.58489701825678],[11.415711178879778,44.58633351050536],[11.415948308419381,44.586583935547985],[11.417802734670541,44.58862141867343],[11.426669043597403,44.5966896414479],[11.432868363130495,44.60228254125804],[11.437883659406625,44.59925979850026],[11.437933023466298,44.599215988892155],[11.438821840095938,44.59768626106453],[11.439223230499092,44.596890540519375],[11.439971294488469,44.596193752405455],[11.44598556675021,44.592733026453345],[11.450953661477513,44.58989366834251],[11.453848005777653,44.58824650035487],[11.45733583990818,44.58626295210961],[11.45927430780782,44.58516341580262],[11.465699549465299,44.5829469730789],[11.471731949530488,44.58089109785033],[11.474093828465644,44.580057864802924],[11.474201222698795,44.58001053183104],[11.474258354896966,44.57996539560248],[11.474225383553575,44.57989297074569],[11.474005503611362,44.57951625942749],[11.473206735956028,44.57814945686083],[11.472634939071032,44.57717777603642],[11.470872014683952,44.574272123945875],[11.469045278884655,44.571321753458605],[11.46678142599884,44.561680157085675],[11.471971885790936,44.553084764685984],[11.476332271908507,44.55162245122995],[11.471817676963898,44.54459377861159],[11.466309992646861,44.54292875988671],[11.448301375573898,44.54328439298837],[11.443669158484548,44.544736785396964],[11.442769792365954,44.545017104030094],[11.442695612919294,44.54501137244514],[11.438785979189717,44.53975207182022],[11.441779704346272,44.538386655725134],[11.440793794586959,44.533619578445844],[11.431486837100689,44.521498291581246],[11.4302226349749,44.521184877244494],[11.425370289792127,44.52277852646612],[11.418519849891965,44.5280552287782],[11.416416342663656,44.52676619293995],[11.416032089380879,44.52654788678584],[11.415670004937903,44.52635784446766],[11.414403506762293,44.52572520598966],[11.41402060759746,44.5258807234551],[11.41009984192423,44.5274821781044],[11.409239032181956,44.5278362550223],[11.407464372495268,44.528566358759655],[11.407895798557417,44.52910017996749],[11.410123316090921,44.53234019587929],[11.414570959731215,44.53947802453988],[11.414820449300144,44.53988009627421],[11.414888449620834,44.54002157533804],[11.412106113634541,44.540903565481564],[11.41080690327781,44.54131473466873],[11.408534394085603,44.542028323922594],[11.40745448036392,44.54235944311071],[11.406349686730344,44.54269782664452],[11.406074633161248,44.54278154598485],[11.406009802528294,44.54279275675557],[11.398738502124727,44.54098776326515],[11.392867320798436,44.5420652457087],[11.390628779418153,44.5450171324796],[11.384302902016447,44.547351034853165],[11.381024724982312,44.54833466368835],[11.38202811988106,44.548379359589376],[11.382173116542791,44.54840389672343],[11.382288694164663,44.548460003681235],[11.387357367936287,44.5511713007082],[11.389427281633449,44.553066897640946],[11.394773567702305,44.560838693913524],[11.400880295973526,44.56365989878668],[11.403883679471395,44.56620342093865],[11.408582700692063,44.57499706390443],[11.40792516601446,44.58147186340719],[11.409479383279216,44.58557114881137]]]}},{"type":"Feature","properties":{"name":"MALALBERGO"},"geometry":{"type":"Polygon","coordinates":[[[11.583030502377252,44.70718926393094],[11.575561578791602,44.70363901084693],[11.573019509695694,44.69904332358065],[11.576449765183671,44.69496107193705],[11.574225860735647,44.692443476833844],[11.562114265491797,44.69121370330451],[11.560377184120798,44.6920639837965],[11.554420674869343,44.69483117599452],[11.549364309861627,44.697179121741605],[11.548868731396754,44.69740849787392],[11.548631356331502,44.69751787438099],[11.548486227757934,44.69738289192237],[11.545684687510496,44.69463090431893],[11.540803500822234,44.68981544619989],[11.539989773734511,44.68899128203442],[11.539909563175916,44.68887042674215],[11.540664779991454,44.68895206893525],[11.549766003880986,44.689890146602664],[11.549773722832334,44.68981401536284],[11.549744207368795,44.689752782956276],[11.549430793760422,44.68942276377536],[11.541840481076006,44.68193561476278],[11.538736856551036,44.6788769762306],[11.5335929683941,44.67385206946199],[11.530071920417303,44.669932616297324],[11.52208103130547,44.66079283168529],[11.520692993810268,44.65974321732071],[11.519164166805076,44.658700638229604],[11.514350480275933,44.657784949234106],[11.503275836152898,44.65222029019094],[11.49944184351958,44.64906624187374],[11.498914710802058,44.64635837100069],[11.498511112952178,44.64547597634786],[11.498089953719514,44.64456977513195],[11.497438967494814,44.643358588316026],[11.496306873567365,44.641274560825046],[11.494953732601493,44.641916874205286],[11.490668691113543,44.642017576070394],[11.483264631926499,44.63672205314414],[11.482093022685985,44.63582085689996],[11.481182365330758,44.63510749685956],[11.478380730432619,44.6326376449918],[11.477858300941767,44.632137533913024],[11.47708782000833,44.631381739087715],[11.473364220958246,44.62684594356403],[11.467400018121005,44.62279349127481],[11.457330243949077,44.623805743574984],[11.45325149814862,44.624756586827246],[11.451836959614662,44.625122881218324],[11.451331792213233,44.62536218180563],[11.451098068916464,44.62551799220225],[11.454758249577244,44.62919330192163],[11.46339011982567,44.63938250422172],[11.464826386227807,44.64015607545973],[11.46593606069663,44.640899093573424],[11.468088434011042,44.6429308543503],[11.468372371475938,44.64321448193426],[11.468435221289662,44.64330257755677],[11.469388066132105,44.6462178674665],[11.471139977110973,44.66340978507199],[11.471940238943372,44.668230103842404],[11.472078203608417,44.66860069780353],[11.47278826327227,44.670408849336894],[11.472952333095122,44.670818275299744],[11.47302686526871,44.6709207356108],[11.476055371144417,44.67397324875345],[11.476331568150258,44.674237316047794],[11.476395147465789,44.674268016446256],[11.4764837163109,44.67427396732522],[11.476564494348821,44.67426321770159],[11.477313813837846,44.67406522547906],[11.482460550664657,44.67521198602399],[11.485166313719432,44.68119196971146],[11.4857232856252,44.68298421511783],[11.485878494582844,44.683985979396574],[11.479889193617451,44.68495280183097],[11.466541114014845,44.68719988292738],[11.468984804337955,44.69049191289147],[11.469510855685845,44.69124726320706],[11.469695477946948,44.69151236124084],[11.470934228110481,44.69330227881272],[11.47116126464582,44.69363325962499],[11.47132985876884,44.693905883976356],[11.470979294774985,44.69407865010959],[11.47092431543322,44.69410452738615],[11.468450130459326,44.695189138302275],[11.468129803966761,44.695298471294485],[11.46474286784067,44.69576832641375],[11.465800140662747,44.7000293875852],[11.466030117130657,44.70088062901871],[11.466101504276319,44.70113430101576],[11.46612581008253,44.70119546233327],[11.466282556216386,44.70140633028655],[11.47856371518833,44.71735004867559],[11.479368786360281,44.71839461614532],[11.479797262730333,44.71894001277768],[11.48085926900253,44.72028497966249],[11.482508354422507,44.72234654921034],[11.483266271688285,44.723236583478275],[11.498049419139333,44.72247979670368],[11.499005185891797,44.7224383120448],[11.511641066085197,44.72247783547852],[11.512115493173603,44.72248088869427],[11.517433044571634,44.72251790954857],[11.517923329367562,44.722522857392875],[11.51831267662645,44.72252945865948],[11.518027887918446,44.72406626301734],[11.516132766714389,44.7335680805331],[11.52014048995687,44.73292096741217],[11.525959555072891,44.73137590015709],[11.545316736954653,44.724057699775166],[11.556457976745751,44.71956582440123],[11.564352896836306,44.71607422317191],[11.580568934768609,44.708840021442285],[11.582273870516605,44.70772118854697],[11.583030502377252,44.70718926393094]]]}},{"type":"Feature","properties":{"name":"MINERBIO"},"geometry":{"type":"Polygon","coordinates":[[[11.49944184351958,44.64906624187374],[11.507401436141901,44.647120519986586],[11.518933492509655,44.64118220264478],[11.522916199808652,44.639813674317814],[11.525570018927906,44.64260683039885],[11.530234341467269,44.644660773550164],[11.532691075999969,44.64292951040278],[11.535450458438273,44.640946253790055],[11.535391532124873,44.640841145716806],[11.535357301673368,44.64078008859593],[11.543122756504522,44.63857293080539],[11.556673512319907,44.63818860520951],[11.565801303615707,44.63722231230249],[11.566134677488758,44.636820786978845],[11.566832783227134,44.63598600773019],[11.567854274865761,44.63476589847306],[11.575497456080148,44.636201527051085],[11.57370891645481,44.63529796247296],[11.57228787553442,44.634240689466914],[11.570343890764041,44.632777135784366],[11.569832596270254,44.63233345276154],[11.56775819860665,44.630249993247304],[11.56683347824164,44.629256890897054],[11.566523762568398,44.628861318641285],[11.566342377427564,44.628628530076064],[11.566195753998946,44.62843626439101],[11.56570928546055,44.62779455589697],[11.55700499746785,44.616087792830186],[11.557649473026855,44.611194075255334],[11.557413485381936,44.61102211657096],[11.556228758201541,44.61016020210452],[11.551852844175592,44.60700372223534],[11.550651900585565,44.60614440108614],[11.54066885335954,44.60547077656788],[11.538798673166426,44.60614704179607],[11.538139550150266,44.60636651505049],[11.535545656078305,44.607209061390414],[11.535333744653045,44.60699095985523],[11.53524755310042,44.60689272520438],[11.535171719117608,44.6067970637819],[11.535105617989204,44.606707951448236],[11.534834117850513,44.60629705153307],[11.528491659493403,44.59611988529358],[11.523730702855925,44.5887937980672],[11.51343365859946,44.5886316651647],[11.504525733034503,44.58792385238049],[11.496205630495837,44.59054914807297],[11.493789808247918,44.591393027219326],[11.491831288260567,44.592160499342555],[11.485590905484163,44.59752863151261],[11.474791656023323,44.601818293367764],[11.470661019580437,44.600072982122036],[11.463328964721288,44.59395680671092],[11.459637233077641,44.5860586389874],[11.45927430780782,44.58516341580262],[11.45733583990818,44.58626295210961],[11.453848005777653,44.58824650035487],[11.450953661477513,44.58989366834251],[11.44598556675021,44.592733026453345],[11.439971294488469,44.596193752405455],[11.439223230499092,44.596890540519375],[11.438821840095938,44.59768626106453],[11.437933023466298,44.599215988892155],[11.437883659406625,44.59925979850026],[11.432868363130495,44.60228254125804],[11.432025623666762,44.60545239306478],[11.436821651533586,44.609452924208775],[11.440683580688644,44.61308167892638],[11.443917792026049,44.616609479385986],[11.449522626730381,44.623426727011434],[11.450879939947507,44.62518287958033],[11.451098068916464,44.62551799220225],[11.451331792213233,44.62536218180563],[11.451836959614662,44.625122881218324],[11.45325149814862,44.624756586827246],[11.457330243949077,44.623805743574984],[11.467400018121005,44.62279349127481],[11.473364220958246,44.62684594356403],[11.47708782000833,44.631381739087715],[11.477858300941767,44.632137533913024],[11.478380730432619,44.6326376449918],[11.481182365330758,44.63510749685956],[11.482093022685985,44.63582085689996],[11.483264631926499,44.63672205314414],[11.490668691113543,44.642017576070394],[11.494953732601493,44.641916874205286],[11.496306873567365,44.641274560825046],[11.497438967494814,44.643358588316026],[11.498089953719514,44.64456977513195],[11.498511112952178,44.64547597634786],[11.498914710802058,44.64635837100069],[11.49944184351958,44.64906624187374]]]}},{"type":"Feature","properties":{"name":"MOLINELLA"},"geometry":{"type":"Polygon","coordinates":[[[11.599359514962677,44.64277366410168],[11.600386685012113,44.649073815359976],[11.600565052920606,44.64987099888243],[11.604636944891602,44.656296376156355],[11.605455000564106,44.65757684269644],[11.60572329819927,44.6579876260834],[11.605845998097104,44.658174999219746],[11.610454653601025,44.66042715639073],[11.614349059259089,44.662303877034304],[11.619071255448121,44.66450693631584],[11.629018756043578,44.66983977232559],[11.632459477089133,44.67294514576425],[11.647219941201696,44.658363784003406],[11.653494887461951,44.652164565092995],[11.667424810321432,44.63856155073886],[11.674538417956938,44.632476043506806],[11.688668818963304,44.62932180249023],[11.69534669865044,44.63516375558953],[11.705217665523831,44.636703036305924],[11.706246159989076,44.63658750076729],[11.707387813331213,44.63648221514584],[11.7100022637626,44.63630931945583],[11.712736861088617,44.636128457654124],[11.722271922361712,44.63586370474602],[11.723945011397731,44.636624415707],[11.724462998625393,44.64029850369253],[11.72365671916478,44.64391528076476],[11.72438264505233,44.64711345649133],[11.726541042266911,44.652301227766536],[11.73315771634047,44.651989339303015],[11.744810579529805,44.648696710144556],[11.757347979140494,44.64907751427557],[11.760987198383436,44.64689030867256],[11.762559725514548,44.64594808453938],[11.767041152705927,44.64328286521172],[11.771857873878984,44.64079895200222],[11.781239367892113,44.640295567160756],[11.794705647599669,44.63547105314141],[11.801926523133021,44.62940837396315],[11.806398931567553,44.6235639093302],[11.805482160301924,44.623130067404915],[11.804652693665634,44.62273972258877],[11.803576708788839,44.622253031603634],[11.794880389033281,44.61837199174231],[11.788122620587275,44.60895600483465],[11.786800648237842,44.60271085517061],[11.788062098516193,44.598510848823175],[11.789376717900678,44.59331926378752],[11.789449856350537,44.59302152916784],[11.789556017532632,44.59257444126496],[11.789606092300595,44.59230483384818],[11.789601184481981,44.59223518784979],[11.78292185158313,44.584969081126054],[11.763213564986643,44.58162366596161],[11.751258372464612,44.57994216498157],[11.74558474068006,44.57995949460043],[11.745277731618136,44.5801783984439],[11.744729838029482,44.580480206204086],[11.743436011538838,44.581007008093124],[11.736636358159531,44.58370444255224],[11.735139145436882,44.58426301891805],[11.734851788288012,44.584363878055925],[11.734783522162319,44.58438520402981],[11.734658401527758,44.58442028864894],[11.734604269121144,44.58442384175098],[11.733427783248835,44.58389781491198],[11.731781148876644,44.583166970524886],[11.73071228214645,44.58270248083795],[11.727578453326446,44.581363502572785],[11.726563572122812,44.5809404388007],[11.723460582588796,44.5806285562141],[11.717878773002345,44.580336819441214],[11.716772730389215,44.580287212977645],[11.715918777107618,44.580274900515136],[11.707341743433464,44.580106199442724],[11.699422461875052,44.579893745219785],[11.693435302496367,44.57792661636934],[11.693494048467787,44.57763411274231],[11.694403460940975,44.574061209425814],[11.694648914967233,44.573172067755706],[11.696605235725471,44.57310954332556],[11.691668167379502,44.569049550184324],[11.685738925053226,44.56424523809332],[11.680655684288359,44.56036206145966],[11.658899668440515,44.554836013734274],[11.64166634861842,44.55031357415724],[11.641432337107462,44.55025429481101],[11.636637064898457,44.549064319965936],[11.632353539739784,44.548017074229776],[11.628435311733105,44.547407437219235],[11.627720294632917,44.54755161414244],[11.627194304452487,44.54761267291753],[11.626816050356057,44.54763432197136],[11.626604118455683,44.547628507160795],[11.625854729286422,44.54753322944511],[11.622586930674673,44.54674075932552],[11.62177550867826,44.546367782415174],[11.62096987556858,44.545982867208686],[11.618036363838703,44.5445709981989],[11.617294780337462,44.54415757752525],[11.617011090731832,44.543989651303164],[11.615410474928582,44.54296293425576],[11.615290065780014,44.54287454045828],[11.615210116311935,44.54281110613688],[11.614846688609182,44.542461018525266],[11.614632661158405,44.542231864152626],[11.614489401430616,44.542054537910985],[11.61417623590743,44.541596399373745],[11.6073829439055,44.54092918781211],[11.605951846335945,44.54156168517397],[11.620938337501274,44.55113187764488],[11.620642733338302,44.55222402933933],[11.619514749142631,44.552863762682705],[11.617948285902822,44.55372792907836],[11.613586572887138,44.55611731653571],[11.612154827332597,44.556865797046044],[11.617197911595394,44.560962823638164],[11.623036797842053,44.56422323639334],[11.629522888072987,44.56822465429061],[11.630265362852255,44.56884109378157],[11.629143786133325,44.57751932183883],[11.626813434951389,44.57758425421283],[11.624003771498398,44.57765168928025],[11.616265901367525,44.577784324366306],[11.601110762496722,44.57803789208173],[11.597455703950722,44.5801737578806],[11.591014044574191,44.58391999253188],[11.586048729572251,44.58298327179607],[11.585836644848381,44.58297625855597],[11.585429268025823,44.58298605896945],[11.584719321033797,44.58304319794592],[11.582338740763749,44.583313717806455],[11.582172364965468,44.5833613616774],[11.58209343914119,44.583570193519314],[11.582123000267469,44.58366856782039],[11.58525450376467,44.59001580487518],[11.593467811695541,44.59518637806849],[11.593948385244413,44.59986119405657],[11.59754888504524,44.60231628484491],[11.602559078137247,44.6049737419025],[11.602975657719437,44.60514986811391],[11.603065582554727,44.60518778702409],[11.6046663138416,44.60584780844985],[11.605166177452771,44.60605303205032],[11.605730852937175,44.60626350307447],[11.606758057439508,44.60660183109509],[11.608550102492249,44.607082464453924],[11.60909674871099,44.607224137401],[11.609385088964512,44.607295754859166],[11.609741712153463,44.60737985852022],[11.612748320697577,44.60789566235166],[11.614057535335652,44.60811043156702],[11.615360232152755,44.60830284257179],[11.617485822539043,44.60863051868964],[11.618382227968754,44.60880800563226],[11.618779547283363,44.60890298370045],[11.619313357549629,44.60905614880888],[11.619807289970138,44.609233309850865],[11.62024565307421,44.60945280269246],[11.620499455416486,44.60959719785175],[11.621037780381217,44.609937606555974],[11.621631484357332,44.61035905232868],[11.62306358562337,44.61180801080509],[11.623564311677685,44.61236253396485],[11.623703532613057,44.612532619912656],[11.623813304356494,44.612678641408124],[11.62391156886449,44.61283165754387],[11.623884872120307,44.61363799515369],[11.614975756594141,44.62098131533353],[11.605207719541506,44.62611992792767],[11.601731838412718,44.62822084034668],[11.60249916043391,44.62862420123218],[11.606348272917522,44.630669348111134],[11.606595417955663,44.630945030159154],[11.607169450534284,44.63164030696007],[11.600231899302923,44.64153849341159],[11.599359514962677,44.64277366410168]]]}},{"type":"Feature","properties":{"name":"PIEVE DI CENTO"},"geometry":{"type":"Polygon","coordinates":[[[11.325531219698082,44.711332596418195],[11.323438979987207,44.70956519247752],[11.313742664579415,44.70103792902298],[11.31041465758756,44.69982471910724],[11.301133884520194,44.70281807846206],[11.289588922086944,44.70601762804183],[11.286004209553294,44.706626792443565],[11.277433837239569,44.70902496331227],[11.277598141592351,44.70935087868778],[11.277752716232197,44.709550338128516],[11.278073618765221,44.70992653044296],[11.278213470009598,44.71007226474819],[11.278708007356434,44.71053051513142],[11.279049922837808,44.710798265620426],[11.279600862610147,44.711124838149026],[11.280025452785315,44.71136842253736],[11.280501560681019,44.711637985709054],[11.28096347576618,44.71186730752666],[11.281515124183812,44.71209035352165],[11.282100196794843,44.712321706605955],[11.28315491791466,44.71273722953294],[11.284049131735594,44.71304341851403],[11.28495033199657,44.713286443614514],[11.28537104447362,44.7133905580824],[11.28726436088833,44.71378023436226],[11.287570830616577,44.713828112172756],[11.28885991842978,44.71394179849237],[11.289092068594561,44.7139461401307],[11.28939796420207,44.713940005347965],[11.289765396314849,44.71393263535643],[11.293583912365476,44.71819058383059],[11.298591572864959,44.723806212669274],[11.309614918152716,44.73664591404177],[11.31856640438139,44.74331552993354],[11.329313866078984,44.748970222230945],[11.33025418963134,44.74934262098435],[11.332872816227404,44.75041439927721],[11.333585383713276,44.750737424217334],[11.334097143304966,44.75101502975911],[11.33811807259367,44.75333629776848],[11.339013840889827,44.75385357973298],[11.340745138357352,44.754920846691],[11.341055103598935,44.755166551658654],[11.344015118330217,44.75783345733648],[11.344715498886018,44.758476239260816],[11.344835723051732,44.75864172068955],[11.348707175643112,44.763439926257185],[11.3583411134446,44.77304014114941],[11.358966363005962,44.77365285959957],[11.359712663208581,44.77417306525249],[11.360841080874486,44.77484290279825],[11.362194670596596,44.77549455612106],[11.365168613958772,44.7768165839236],[11.369340887996923,44.77864118034937],[11.37020624408417,44.77897879681287],[11.370561003250065,44.779115453135525],[11.37104352801271,44.77928548120386],[11.371804223289052,44.77953523388321],[11.372336502142392,44.77968621007515],[11.37339862236507,44.77996571186204],[11.373978369199074,44.78007968541773],[11.374281912949144,44.78012287396887],[11.374683511416299,44.78016853725585],[11.37807033792079,44.78038609183945],[11.379522530589794,44.780391832160696],[11.380397819739871,44.7803915939872],[11.38104818382631,44.7803780288703],[11.381960623169343,44.78035899030523],[11.383305864485283,44.78022287272325],[11.38526380380922,44.779772370337064],[11.38600618873529,44.77957682327591],[11.387781008360935,44.77890055546282],[11.38834593712603,44.778654677681146],[11.378562244921596,44.774686528814094],[11.371604509341141,44.76958421484211],[11.36383567101147,44.76307758404761],[11.360349132824549,44.759921350723175],[11.35947589158805,44.75893730881703],[11.355937932512408,44.75592208256137],[11.353653878264758,44.754025283698454],[11.351596175499651,44.75241073811775],[11.350037036490157,44.75134740466262],[11.34703697973101,44.75254505392473],[11.345377166449577,44.75264050979671],[11.339462155146839,44.7476278366262],[11.337125866649414,44.74527606158414],[11.3330693615333,44.74097723192006],[11.332338444968991,44.74019462566673],[11.332025189373777,44.7398451648634],[11.333128803547252,44.73460696364385],[11.331617167655784,44.72406248169328],[11.329996906571042,44.7201514759046],[11.326275055707937,44.71274428677902],[11.325531219698082,44.711332596418195]]]}},{"type":"Feature","properties":{"name":"SAN GIORGIO DI PIANO"},"geometry":{"type":"Polygon","coordinates":[[[11.368682402272816,44.609471024185],[11.364192794076246,44.610130130228086],[11.36102751733715,44.61087588210271],[11.357614076736462,44.61188963198992],[11.350412189243636,44.614329678098045],[11.34972185013812,44.61662596752806],[11.345293005244796,44.6247578682558],[11.348587767367068,44.630048753818805],[11.352182190930577,44.63018348112519],[11.356024610753979,44.629903385246074],[11.359405407537414,44.62966587012294],[11.359470307316576,44.62994530282057],[11.358691094101948,44.63453513367175],[11.35783885127904,44.639543358312785],[11.356782636080476,44.639596126566694],[11.356547014334234,44.639635302035394],[11.354624015877356,44.64002100833799],[11.354258402822861,44.640119700679165],[11.351436545295565,44.6415533200193],[11.350558257210835,44.64233797378474],[11.345889781348234,44.647462936370275],[11.347578791763565,44.651329019718816],[11.35207678192611,44.65603690059591],[11.352121012519085,44.65608591362318],[11.35224676986602,44.656225269739785],[11.35237930987389,44.656461661117916],[11.352520833445233,44.65674512242319],[11.353996742778541,44.65988575253163],[11.354024041858839,44.661124689116754],[11.350089356718135,44.66414671549095],[11.34697603025229,44.66498664461572],[11.346165602738782,44.667976313811884],[11.34996676543982,44.66702319814874],[11.352047054057945,44.666507743815956],[11.35283931293365,44.66636875710644],[11.355031226711786,44.667947899469276],[11.3565872839905,44.66967123259405],[11.358020465658207,44.671278369355086],[11.357124120286684,44.67254594779971],[11.356808760424395,44.67297443839786],[11.356687511329694,44.67305682775857],[11.35649409289644,44.67314804474301],[11.355170249795906,44.67371381045456],[11.353917229480055,44.67425728684039],[11.348103943358284,44.676826204485955],[11.347771288298354,44.67698551799567],[11.34766737059886,44.677048422071735],[11.347515601713283,44.677156191192445],[11.347390879307097,44.67727016826482],[11.347306029832783,44.677395125523134],[11.347253648367651,44.677484550784925],[11.347209545766733,44.67760304719018],[11.34717625416869,44.67775507825348],[11.347177828497498,44.67787208173222],[11.347188556260507,44.67798157808172],[11.347225962310889,44.67812653160005],[11.349193597163499,44.68323876846141],[11.353136102222068,44.68600507856982],[11.354846833605492,44.68738822082587],[11.357070935202923,44.690536422608176],[11.35750202168606,44.69126570329493],[11.357533912391311,44.69135225014045],[11.35774505782704,44.69301669720847],[11.357503656142944,44.69371596930915],[11.354673919914612,44.69532165333334],[11.353209754190154,44.696077643760596],[11.352497116078563,44.696341595794884],[11.351172544167083,44.69694278319451],[11.349938186846027,44.69770693842868],[11.349546723916035,44.69811108893599],[11.349488540878287,44.69870082010335],[11.349312792216455,44.70110296425667],[11.349594229224762,44.702132943969836],[11.354182340490926,44.70158435152187],[11.36295599244122,44.699014656547455],[11.361163367582877,44.6935941483703],[11.370913691124386,44.69017709559521],[11.377219371625738,44.688608418571945],[11.381135016945919,44.687946157118205],[11.382254979594183,44.68779225620767],[11.383404770243374,44.68963396549634],[11.390188641336055,44.69210613553694],[11.39158453500891,44.69171793522781],[11.391769641013218,44.69165384279982],[11.391967857673842,44.6915641607989],[11.392147137511886,44.69145463360484],[11.396792100799242,44.68824893834377],[11.39639621294538,44.687650968322636],[11.395457587133464,44.68634902206086],[11.395374491797321,44.68624669180871],[11.394855290175386,44.68560889225416],[11.393324061376948,44.680866582033524],[11.399639591376914,44.67643649712826],[11.405151699913263,44.67296528466996],[11.413572115197075,44.67203470109007],[11.413878663980379,44.671992765558],[11.414156141649586,44.67195256846645],[11.414381835207827,44.671919106942205],[11.414684368653399,44.67185643805605],[11.414914085971843,44.67180600285618],[11.416723626336232,44.67138792637836],[11.419513802294334,44.67073637867191],[11.418274962172353,44.669273883516524],[11.414248170893156,44.66304347854874],[11.410804762787587,44.6572118592371],[11.408911085755692,44.65330601605348],[11.405394560806236,44.64804125366378],[11.40104240971293,44.64880642989774],[11.399059317112167,44.64830854859864],[11.389533982035598,44.644771256729086],[11.385729340193645,44.64026421648077],[11.385329666519883,44.63976350675723],[11.382590062197055,44.634537365171994],[11.378337769946667,44.62484032826118],[11.370347473865657,44.6170378547254],[11.370310050172908,44.616969955991],[11.36896039243674,44.613885415598396],[11.368790747097634,44.61345231593095],[11.368757623714966,44.61329603162056],[11.368740667021974,44.61315010579218],[11.368638779537376,44.61203985238893],[11.368627136173451,44.60989415272081],[11.368682402272816,44.609471024185]]]}},{"type":"Feature","properties":{"name":"SAN PIETRO IN CASALE"},"geometry":{"type":"Polygon","coordinates":[[[11.466541114014845,44.68719988292738],[11.46460225905034,44.684537997812534],[11.461676551519696,44.67983192540126],[11.452621551675527,44.68016775653284],[11.451118052238249,44.67918189182396],[11.451058710008123,44.679083590469595],[11.451003330407948,44.67896774396642],[11.450559573023583,44.677906564419885],[11.449443365251362,44.67520396650849],[11.447185331643393,44.671073661050535],[11.445546670286568,44.668126781788786],[11.444945932387954,44.66803443387032],[11.443297871977705,44.668141737682504],[11.432321159598072,44.67083493271159],[11.428537683060341,44.67184497996802],[11.422027370928575,44.67173690576367],[11.420367093250464,44.6714216077953],[11.419513802294334,44.67073637867191],[11.416723626336232,44.67138792637836],[11.414914085971843,44.67180600285618],[11.414684368653399,44.67185643805605],[11.414381835207827,44.671919106942205],[11.414156141649586,44.67195256846645],[11.413878663980379,44.671992765558],[11.413572115197075,44.67203470109007],[11.405151699913263,44.67296528466996],[11.399639591376914,44.67643649712826],[11.393324061376948,44.680866582033524],[11.394855290175386,44.68560889225416],[11.395374491797321,44.68624669180871],[11.395457587133464,44.68634902206086],[11.39639621294538,44.687650968322636],[11.396792100799242,44.68824893834377],[11.392147137511886,44.69145463360484],[11.391967857673842,44.6915641607989],[11.391769641013218,44.69165384279982],[11.39158453500891,44.69171793522781],[11.390188641336055,44.69210613553694],[11.383404770243374,44.68963396549634],[11.382254979594183,44.68779225620767],[11.381135016945919,44.687946157118205],[11.377219371625738,44.688608418571945],[11.370913691124386,44.69017709559521],[11.361163367582877,44.6935941483703],[11.36295599244122,44.699014656547455],[11.354182340490926,44.70158435152187],[11.349594229224762,44.702132943969836],[11.349381140921233,44.702189100545496],[11.341824830351683,44.704414331108204],[11.339304912589387,44.7084061764502],[11.330673294377721,44.71072301501303],[11.32797767119116,44.7108719968654],[11.326236117025118,44.71114267925332],[11.325531219698082,44.711332596418195],[11.326275055707937,44.71274428677902],[11.329996906571042,44.7201514759046],[11.331617167655784,44.72406248169328],[11.333128803547252,44.73460696364385],[11.332025189373777,44.7398451648634],[11.332338444968991,44.74019462566673],[11.3330693615333,44.74097723192006],[11.337125866649414,44.74527606158414],[11.339462155146839,44.7476278366262],[11.345377166449577,44.75264050979671],[11.34703697973101,44.75254505392473],[11.350037036490157,44.75134740466262],[11.354724661812352,44.747692113400355],[11.37068258543781,44.74043516478483],[11.370846524893059,44.740370993579944],[11.372832654768242,44.73967536178623],[11.373993178734057,44.739330527689354],[11.382089458488743,44.73698838675054],[11.382872275205786,44.736771180452834],[11.390734849968874,44.735272971866365],[11.392942354200843,44.737766797130256],[11.393965605473635,44.73897638131049],[11.394679667162718,44.73980872387601],[11.397261782353034,44.74280515037878],[11.407136338357978,44.74076884514496],[11.407340073202995,44.74056034477992],[11.407758753448734,44.739844842796785],[11.409479790628327,44.735858249974505],[11.416321436379471,44.7296506345815],[11.417410708200421,44.728819072274334],[11.418873796497175,44.727967022637905],[11.422051149144927,44.730282569376165],[11.423501131668159,44.73228629564639],[11.424116881478389,44.73419518800251],[11.425764601253695,44.73499682927458],[11.432203135273557,44.73563174469734],[11.436975991517976,44.73423248853212],[11.437954315149858,44.733925080268094],[11.437797471826475,44.73353626740002],[11.437394710293717,44.732743101259594],[11.441102998187024,44.731394552268796],[11.445222089154466,44.732207307197385],[11.450560138775913,44.73362544710088],[11.452472676835018,44.7331213165468],[11.470928232694426,44.72724085691744],[11.483266271688285,44.723236583478275],[11.482508354422507,44.72234654921034],[11.48085926900253,44.72028497966249],[11.479797262730333,44.71894001277768],[11.479368786360281,44.71839461614532],[11.47856371518833,44.71735004867559],[11.466282556216386,44.70140633028655],[11.46612581008253,44.70119546233327],[11.466101504276319,44.70113430101576],[11.466030117130657,44.70088062901871],[11.465800140662747,44.7000293875852],[11.46474286784067,44.69576832641375],[11.468129803966761,44.695298471294485],[11.468450130459326,44.695189138302275],[11.47092431543322,44.69410452738615],[11.470979294774985,44.69407865010959],[11.47132985876884,44.693905883976356],[11.47116126464582,44.69363325962499],[11.470934228110481,44.69330227881272],[11.469695477946948,44.69151236124084],[11.469510855685845,44.69124726320706],[11.468984804337955,44.69049191289147],[11.466541114014845,44.68719988292738]]]}}]}
